format  = 'OEF1.1'       ! file format
rectype = 'ML'           ! record type (1L/ML)
refsys  = ECLM J2000     ! default reference system
END_OF_HEADER
2009BD
! Equinoctial elements: a, e*sin(LP), e*cos(LP), tan(i/2)*sin(LN), tan(i/2)*cos(LN), mean long.
 EQU   1.00721096844460E+00   0.006322449029645  -0.040167279637940    0.002870260948876    0.001754935810959  42.4207970247709
 MJD     55137.563158689 TDT
 MAG  28.236  0.150
! RMS    5.52889E-09   4.18686E-09   7.76548E-09   4.21698E-09   1.45120E-09   1.06510E-06
! EIG   1.44951E-10   6.08091E-10   7.48009E-10   2.40358E-09   3.56625E-09   2.13170E-08
! WEA   0.25624   0.15415  -0.36016  -0.14976   0.00601  -0.87086
 COV   3.056861392034452E-17  1.726623557329113E-17 -4.215788689859828E-17
 COV  -1.597949088795703E-17  1.736325516753918E-19 -5.813973816581658E-15
 COV   1.752978553768849E-17 -2.689574048614507E-17 -1.469846790016701E-17
 COV   7.201215180375316E-19 -3.357453404491097E-15  6.030272880657142E-17
 COV   2.367057291128409E-17  3.150338859602979E-19  8.122222236275616E-15
 COV   1.778290269447031E-17 -3.332591523020760E-18  3.321407404158791E-15
 COV   2.105967427227430E-18 -1.433279502462104E-16  1.134439791475866E-12
 NOR   2.958572804060020E+18  1.790253710847847E+18  5.440862878553637E+18
 NOR  -5.951717612028054E+17 -3.784428679855145E+18 -1.722942537900007E+16
 NOR   4.517859692250071E+18  1.055755550464335E+19  2.668939770575966E+17
 NOR  -6.569074719737373E+18 -5.465412672215870E+16  2.732835991317316E+19
 NOR  -6.299421497105764E+17 -1.846899477809568E+19 -1.370212041153941E+17
 NOR   8.646339580377548E+17  1.413267616617022E+18 -1.030814402831525E+14
 NOR   1.422937837491249E+19  9.105532035882546E+16  7.436619495105555E+14
